{
  "links" : {
    "next" : "https://api.nasa.gov/neo/rest/v1/feed?start_date=2000-05-16&end_date=2000-05-16&detailed=true&api_key=t0TVs3DtDT2H8Oy2Zy8m2eVrNsAVKAexjcZXUckd",
    "prev" : "https://api.nasa.gov/neo/rest/v1/feed?start_date=2000-05-14&end_date=2000-05-14&detailed=true&api_key=t0TVs3DtDT2H8Oy2Zy8m2eVrNsAVKAexjcZXUckd",
    "self" : "https://api.nasa.gov/neo/rest/v1/feed?start_date=2000-05-15&end_date=2000-05-15&detailed=true&api_key=t0TVs3DtDT2H8Oy2Zy8m2eVrNsAVKAexjcZXUckd"
  },
  "element_count" : 7,
  "near_earth_objects" : {
    "2000-05-15" : [ {
      "links" : {
        "self" : "https://api.nasa.gov/neo/rest/v1/neo/3367027?api_key=t0TVs3DtDT2H8Oy2Zy8m2eVrNsAVKAexjcZXUckd"
      },
      "neo_reference_id" : "3367027",
      "name" : "(2007 BJ29)",
      "nasa_jpl_url" : "http://ssd.jpl.nasa.gov/sbdb.cgi?sstr=3367027",
      "absolute_magnitude_h" : 18.8,
      "estimated_diameter" : {
        "kilometers" : {
          "estimated_diameter_min" : 0.4619074603,
          "estimated_diameter_max" : 1.0328564805
        },
        "meters" : {
          "estimated_diameter_min" : 461.9074602816,
          "estimated_diameter_max" : 1032.8564805039
        },
        "miles" : {
          "estimated_diameter_min" : 0.2870159005,
          "estimated_diameter_max" : 0.6417870641
        },
        "feet" : {
          "estimated_diameter_min" : 1515.4444719902,
          "estimated_diameter_max" : 3388.6368554964
        }
      },
      "is_potentially_hazardous_asteroid" : true,
      "close_approach_data" : [ {
        "close_approach_date" : "2000-05-15",
        "epoch_date_close_approach" : 958374000000,
        "relative_velocity" : {
          "kilometers_per_second" : "37.4443543135",
          "kilometers_per_hour" : "134799.6755286216",
          "miles_per_hour" : "83759.2761638816"
        },
        "miss_distance" : {
          "astronomical" : "0.2973892935",
          "lunar" : "115.6844406128",
          "kilometers" : "44488808",
          "miles" : "27644062"
        },
        "orbiting_body" : "Earth"
      } ],
      "orbital_data" : {
        "orbit_id" : "29",
        "orbit_determination_date" : "2017-04-06 09:07:10",
        "orbit_uncertainty" : "0",
        "minimum_orbit_intersection" : ".0234425",
        "jupiter_tisserand_invariant" : "3.099",
        "epoch_osculation" : "2458000.5",
        "eccentricity" : ".8261275015881013",
        "semi_major_axis" : "2.183641931601529",
        "inclination" : "11.0761908830863",
        "ascending_node_longitude" : "242.1136370880905",
        "orbital_period" : "1178.611202882982",
        "perihelion_distance" : ".3796752782845421",
        "perihelion_argument" : "119.4647378399672",
        "aphelion_distance" : "3.987608584918515",
        "perihelion_time" : "2457612.314047544590",
        "mean_anomaly" : "118.5691621987937",
        "mean_motion" : ".3054442373527502",
        "equinox" : "J2000"
      }
    }, {
      "links" : {
        "self" : "https://api.nasa.gov/neo/rest/v1/neo/3458579?api_key=t0TVs3DtDT2H8Oy2Zy8m2eVrNsAVKAexjcZXUckd"
      },
      "neo_reference_id" : "3458579",
      "name" : "(2009 HU44)",
      "nasa_jpl_url" : "http://ssd.jpl.nasa.gov/sbdb.cgi?sstr=3458579",
      "absolute_magnitude_h" : 22.6,
      "estimated_diameter" : {
        "kilometers" : {
          "estimated_diameter_min" : 0.0802703167,
          "estimated_diameter_max" : 0.1794898848
        },
        "meters" : {
          "estimated_diameter_min" : 80.2703167283,
          "estimated_diameter_max" : 179.4898847799
        },
        "miles" : {
          "estimated_diameter_min" : 0.049877647,
          "estimated_diameter_max" : 0.1115298092
        },
        "feet" : {
          "estimated_diameter_min" : 263.3540659348,
          "estimated_diameter_max" : 588.8775935812
        }
      },
      "is_potentially_hazardous_asteroid" : false,
      "close_approach_data" : [ {
        "close_approach_date" : "2000-05-15",
        "epoch_date_close_approach" : 958374000000,
        "relative_velocity" : {
          "kilometers_per_second" : "14.2181905373",
          "kilometers_per_hour" : "51185.4859343045",
          "miles_per_hour" : "31804.6704129016"
        },
        "miss_distance" : {
          "astronomical" : "0.338794064",
          "lunar" : "131.7908935547",
          "kilometers" : "50682868",
          "miles" : "31492874"
        },
        "orbiting_body" : "Earth"
      } ],
      "orbital_data" : {
        "orbit_id" : "12",
        "orbit_determination_date" : "2017-04-06 09:00:43",
        "orbit_uncertainty" : "6",
        "minimum_orbit_intersection" : ".00638306",
        "jupiter_tisserand_invariant" : "6.875",
        "epoch_osculation" : "2458000.5",
        "eccentricity" : ".6440086422616678",
        "semi_major_axis" : ".8302143280954606",
        "inclination" : "6.637699366835285",
        "ascending_node_longitude" : "212.9014225156205",
        "orbital_period" : "276.3018312543434",
        "perihelion_distance" : ".2955491258725202",
        "perihelion_argument" : "213.5997860309006",
        "aphelion_distance" : "1.364879530318401",
        "perihelion_time" : "2457919.832973899789",
        "mean_anomaly" : "105.1029204701275",
        "mean_motion" : "1.302922960610457",
        "equinox" : "J2000"
      }
    }, {
      "links" : {
        "self" : "https://api.nasa.gov/neo/rest/v1/neo/3655398?api_key=t0TVs3DtDT2H8Oy2Zy8m2eVrNsAVKAexjcZXUckd"
      },
      "neo_reference_id" : "3655398",
      "name" : "(2013 YR2)",
      "nasa_jpl_url" : "http://ssd.jpl.nasa.gov/sbdb.cgi?sstr=3655398",
      "absolute_magnitude_h" : 24.2,
      "estimated_diameter" : {
        "kilometers" : {
          "estimated_diameter_min" : 0.0384197891,
          "estimated_diameter_max" : 0.0859092601
        },
        "meters" : {
          "estimated_diameter_min" : 38.4197891064,
          "estimated_diameter_max" : 85.9092601232
        },
        "miles" : {
          "estimated_diameter_min" : 0.0238729428,
          "estimated_diameter_max" : 0.0533815229
        },
        "feet" : {
          "estimated_diameter_min" : 126.0491808919,
          "estimated_diameter_max" : 281.8545369825
        }
      },
      "is_potentially_hazardous_asteroid" : false,
      "close_approach_data" : [ {
        "close_approach_date" : "2000-05-15",
        "epoch_date_close_approach" : 958374000000,
        "relative_velocity" : {
          "kilometers_per_second" : "13.8958992838",
          "kilometers_per_hour" : "50025.2374215004",
          "miles_per_hour" : "31083.7371078206"
        },
        "miss_distance" : {
          "astronomical" : "0.312187638",
          "lunar" : "121.4409942627",
          "kilometers" : "46702608",
          "miles" : "29019654"
        },
        "orbiting_body" : "Earth"
      } ],
      "orbital_data" : {
        "orbit_id" : "9",
        "orbit_determination_date" : "2017-04-06 08:43:12",
        "orbit_uncertainty" : "6",
        "minimum_orbit_intersection" : ".036039",
        "jupiter_tisserand_invariant" : "5.118",
        "epoch_osculation" : "2458000.5",
        "eccentricity" : ".2342994501420863",
        "semi_major_axis" : "1.24851465079394",
        "inclination" : "4.151419360342046",
        "ascending_node_longitude" : "97.50412046193659",
        "orbital_period" : "509.5524467856896",
        "perihelion_distance" : ".9559883546185811",
        "perihelion_argument" : "66.08044970670223",
        "aphelion_distance" : "1.541040946969299",
        "perihelion_time" : "2458250.771016468194",
        "mean_anomaly" : "183.1829392697557",
        "mean_motion" : ".7065023478366512",
        "equinox" : "J2000"
      }
    } ]
  }
}